{
    "links": {
        "self": "http://www.neowsapp.com/rest/v1/neo/3753585?api_key=iIulBulltgU6a56xZRHN4H3l9WmuAYTsLGpBGhQ2"
    },
    "id": "3753585",
    "neo_reference_id": "3753585",
    "name": "(2016 JO38)",
    "designation": "2016 JO38",
    "nasa_jpl_url": "http://ssd.jpl.nasa.gov/sbdb.cgi?sstr=3753585",
    "absolute_magnitude_h": 24.4,
    "estimated_diameter": {
        "kilometers": {
            "estimated_diameter_min": 0.0350392641,
            "estimated_diameter_max": 0.0783501764
        },
        "meters": {
            "estimated_diameter_min": 35.0392641108,
            "estimated_diameter_max": 78.3501764334
        },
        "miles": {
            "estimated_diameter_min": 0.0217723826,
            "estimated_diameter_max": 0.0486845275
        },
        "feet": {
            "estimated_diameter_min": 114.9582192654,
            "estimated_diameter_max": 257.0543928497
        }
    },
    "is_potentially_hazardous_asteroid": false,
    "close_approach_data": [
        {
            "close_approach_date": "2016-07-20",
            "close_approach_date_full": "2016-Jul-20 21:38",
            "epoch_date_close_approach": 1469050680000,
            "relative_velocity": {
                "kilometers_per_second": "6.3117338287",
                "kilometers_per_hour": "22722.2417834532",
                "miles_per_hour": "14118.7174015018"
            },
            "miss_distance": {
                "astronomical": "0.0741337085",
                "lunar": "28.8380126065",
                "kilometers": "11090244.886800895",
                "miles": "6891158.625386551"
            },
            "orbiting_body": "Earth"
        }
    ],
    "orbital_data": {
        "orbit_id": "13",
        "orbit_determination_date": "2019-12-18 11:33:26",
        "first_observation_date": "2016-04-27",
        "last_observation_date": "2016-05-04",
        "data_arc_in_days": 7,
        "observations_used": 17,
        "orbit_uncertainty": "9",
        "minimum_orbit_intersection": ".00294818",
        "jupiter_tisserand_invariant": "4.624",
        "epoch_osculation": "2457510.5",
        "eccentricity": ".3446884940827324",
        "semi_major_axis": "1.42946616712879",
        "inclination": "1.701697896062254",
        "ascending_node_longitude": "4.770768480986082",
        "orbital_period": "624.251002041991",
        "perihelion_distance": ".9367456266389519",
        "perihelion_argument": "311.7209669037517",
        "aphelion_distance": "1.922186707618628",
        "perihelion_time": "2457605.978863450230",
        "mean_anomaly": "304.9381887579722",
        "mean_motion": ".5766911047357585",
        "equinox": "J2000",
        "orbit_class": {
            "orbit_class_type": "APO",
            "orbit_class_description": "Near-Earth asteroid orbits which cross the Earth’s orbit similar to that of 1862 Apollo",
            "orbit_class_range": "a (semi-major axis) > 1.0 AU; q (perihelion) < 1.017 AU"
        }
    },
    "is_sentry_object": false
}